IRIDIUM 106             
1 41917U 17003A   23229.35859465  .00000373  00000+0  12599-3 0  9997
2 41917  86.4031 161.0007 0002612  82.9601 277.1891 14.34215511344887
IRIDIUM 103             
1 41918U 17003B   23229.34590563  .00000327  00000+0  10978-3 0  9996
2 41918  86.4025 160.9102 0002494  97.7122 262.4357 14.34216396344915
IRIDIUM 109             
1 41919U 17003C   23229.35224703  .00000219  00000+0  71036-4 0  9991
2 41919  86.4033 160.9487 0002098  89.1141 271.0295 14.34216162344892
IRIDIUM 102             
1 41920U 17003D   23229.11123090  .00000365  00000+0  12334-3 0  9991
2 41920  86.4031 160.9948 0002206  86.1750 273.9698 14.34219612344923
IRIDIUM 105             
1 41921U 17003E   23229.15163220  .00000186  00000+0  59415-4 0  9998
2 41921  86.3997 129.4340 0002213  85.3132 274.8316 14.34204798346785
IRIDIUM 104             
1 41922U 17003F   23228.77507195  .00000294  00000+0  97942-4 0  9996
2 41922  86.4032 161.1621 0002372  87.6270 272.5198 14.34216374344869
IRIDIUM 114             
1 41923U 17003G   23228.08372855  .00000344  00000+0  11561-3 0  9992
2 41923  86.4032 161.4371 0002478  79.1710 280.9765 14.34219840344760
IRIDIUM 108             
1 41924U 17003H   23229.08877944  .00000367  00000+0  12384-3 0  9992
2 41924  86.3987 129.4054 0002441  83.5283 276.6191 14.34219899346766
